{
    "links": {
        "self": "http://www.neowsapp.com/rest/v1/neo/3752418?api_key=iIulBulltgU6a56xZRHN4H3l9WmuAYTsLGpBGhQ2"
    },
    "id": "3752418",
    "neo_reference_id": "3752418",
    "name": "(2016 HO2)",
    "designation": "2016 HO2",
    "nasa_jpl_url": "http://ssd.jpl.nasa.gov/sbdb.cgi?sstr=3752418",
    "absolute_magnitude_h": 26.0,
    "estimated_diameter": {
        "kilometers": {
            "estimated_diameter_min": 0.0167708462,
            "estimated_diameter_max": 0.0375007522
        },
        "meters": {
            "estimated_diameter_min": 16.7708462163,
            "estimated_diameter_max": 37.5007521798
        },
        "miles": {
            "estimated_diameter_min": 0.0104209175,
            "estimated_diameter_max": 0.0233018799
        },
        "feet": {
            "estimated_diameter_min": 55.0224631002,
            "estimated_diameter_max": 123.0339677816
        }
    },
    "is_potentially_hazardous_asteroid": false,
    "close_approach_data": [
        {
            "close_approach_date": "1935-10-15",
            "close_approach_date_full": "1935-Oct-15 08:22",
            "epoch_date_close_approach": -1079710680000,
            "relative_velocity": {
                "kilometers_per_second": "11.3899762736",
                "kilometers_per_hour": "41003.9145849326",
                "miles_per_hour": "25478.2379263988"
            },
            "miss_distance": {
                "astronomical": "0.0799664693",
                "lunar": "31.1069565577",
                "kilometers": "11962813.478700391",
                "miles": "7433347.6067557558"
            },
            "orbiting_body": "Mars"
        },
        {
            "close_approach_date": "2016-05-01",
            "close_approach_date_full": "2016-May-01 07:43",
            "epoch_date_close_approach": 1462088580000,
            "relative_velocity": {
                "kilometers_per_second": "6.0172666623",
                "kilometers_per_hour": "21662.1599842614",
                "miles_per_hour": "13460.0237968873"
            },
            "miss_distance": {
                "astronomical": "0.0430704565",
                "lunar": "16.7544075785",
                "kilometers": "6443248.552327655",
                "miles": "4003648.998745439"
            },
            "orbiting_body": "Earth"
        }
    ],
    "orbital_data": {
        "orbit_id": "9",
        "orbit_determination_date": "2020-08-13 08:10:08",
        "first_observation_date": "2016-04-26",
        "last_observation_date": "2016-05-04",
        "data_arc_in_days": 8,
        "observations_used": 57,
        "orbit_uncertainty": "8",
        "minimum_orbit_intersection": ".039944",
        "jupiter_tisserand_invariant": "3.658",
        "epoch_osculation": "2457509.5",
        "eccentricity": ".4831594184448031",
        "semi_major_axis": "2.029184661840596",
        "inclination": ".5409480094620376",
        "ascending_node_longitude": "70.12442851710972",
        "orbital_period": "1055.797874244204",
        "perihelion_distance": "1.048764980708579",
        "perihelion_argument": "154.7319807314995",
        "aphelion_distance": "3.009604342972613",
        "perihelion_time": "2457512.636760907945",
        "mean_anomaly": "358.9304449701904",
        "mean_motion": ".3409743557759171",
        "equinox": "J2000",
        "orbit_class": {
            "orbit_class_type": "AMO",
            "orbit_class_description": "Near-Earth asteroid orbits similar to that of 1221 Amor",
            "orbit_class_range": "1.017 AU < q (perihelion) < 1.3 AU"
        }
    },
    "is_sentry_object": false
}